0 COSMOS 1704
1 16291U 85110A   13282.16185329  .00000039  00000-0  24911-4 0  1327
2 16291 082.9346 318.9900 0031346 017.9897 013.8027 13.74492719397558
0 COSMOS 1704
1 16291U 85110A   13283.18084550  .00000049  00000-0  35712-4 0  1337
2 16291 082.9344 318.2349 0031275 015.1516 015.9518 13.74492711397690
0 COSMOS 1704
1 16291U 85110A   13286.16545270  .00000050  00000-0  37262-4 0  1355
2 16291 082.9337 316.0232 0031084 006.7563 024.3848 13.74492888398107
0 COSMOS 1704
1 16291U 85110A   13287.19154323  .00000043  00000-0  29207-4 0  1367
2 16291 082.9335 315.2627 0031026 003.8470 061.7090 13.74493068398245
0 COSMOS 1704
1 16291U 85110A   13288.52193304  .00000037  00000-0  23570-4 0  1378
2 16291 082.9333 314.2767 0030926 000.1361 164.7136 13.74493189398423
0 COSMOS 1704
1 16291U 85110A   13289.54094883  .00000027  00000-0  13098-4 0  1387
2 16291 082.9332 313.5213 0030850 357.2752 167.0030 13.74493385398568
0 COSMOS 1704
1 16291U 85110A   13290.62310502  .00000024  00000-0  96897-5 0  1394
2 16291 082.9332 312.7191 0030788 354.1988 121.7627 13.74493499398713
0 COSMOS 1704
1 16291U 85110A   13292.13458888  .00000026  00000-0  11629-4 0  1405
2 16291 082.9333 311.5986 0030693 349.9135 040.9248 13.74493578398926
0 COSMOS 1704
1 16291U 85110A   13293.16055071  .00000043  00000-0  29683-4 0  1415
2 16291 082.9333 310.8380 0030639 346.9952 077.6249 13.74493691399060
0 COSMOS 1704
1 16291U 85110A   13294.18041164  .00000043  00000-0  29414-4 0  1429
2 16291 082.9334 310.0820 0030606 344.0867 084.1440 13.74493580399209
0 COSMOS 1704
1 16291U 85110A   13295.51014615  .00000051  00000-0  38402-4 0  1435
2 16291 082.9333 309.0964 0030500 340.3015 183.9851 13.74493499399384
